{
    "links": {
        "self": "http://www.neowsapp.com/rest/v1/neo/3991593?api_key=iIulBulltgU6a56xZRHN4H3l9WmuAYTsLGpBGhQ2"
    },
    "id": "3991593",
    "neo_reference_id": "3991593",
    "name": "(2020 CS2)",
    "designation": "2020 CS2",
    "nasa_jpl_url": "http://ssd.jpl.nasa.gov/sbdb.cgi?sstr=3991593",
    "absolute_magnitude_h": 24.373,
    "estimated_diameter": {
        "kilometers": {
            "estimated_diameter_min": 0.0354776608,
            "estimated_diameter_max": 0.0793304611
        },
        "meters": {
            "estimated_diameter_min": 35.4776607567,
            "estimated_diameter_max": 79.3304611347
        },
        "miles": {
            "estimated_diameter_min": 0.0220447895,
            "estimated_diameter_max": 0.049293648
        },
        "feet": {
            "estimated_diameter_min": 116.3965285171,
            "estimated_diameter_max": 260.2705501092
        }
    },
    "is_potentially_hazardous_asteroid": false,
    "close_approach_data": [
        {
            "close_approach_date": "2019-09-03",
            "close_approach_date_full": "2019-Sep-03 12:04",
            "epoch_date_close_approach": 1567512240000,
            "relative_velocity": {
                "kilometers_per_second": "13.9055234918",
                "kilometers_per_hour": "50059.8845706182",
                "miles_per_hour": "31105.2654988933"
            },
            "miss_distance": {
                "astronomical": "0.2934966267",
                "lunar": "114.1701877863",
                "kilometers": "43906470.206505129",
                "miles": "27282215.4931796202"
            },
            "orbiting_body": "Earth"
        },
        {
            "close_approach_date": "2020-02-11",
            "close_approach_date_full": "2020-Feb-11 21:07",
            "epoch_date_close_approach": 1581455220000,
            "relative_velocity": {
                "kilometers_per_second": "12.9457612409",
                "kilometers_per_hour": "46604.7404671972",
                "miles_per_hour": "28958.3733197426"
            },
            "miss_distance": {
                "astronomical": "0.1080012947",
                "lunar": "42.0125036383",
                "kilometers": "16156763.644362289",
                "miles": "10039347.3978820282"
            },
            "orbiting_body": "Earth"
        }
    ],
    "orbital_data": {
        "orbit_id": "4",
        "orbit_determination_date": "2020-02-22 10:48:50",
        "first_observation_date": "2020-02-15",
        "last_observation_date": "2020-02-21",
        "data_arc_in_days": 6,
        "observations_used": 37,
        "orbit_uncertainty": "8",
        "minimum_orbit_intersection": ".107844",
        "jupiter_tisserand_invariant": "5.247",
        "epoch_osculation": "2458896.5",
        "eccentricity": ".1340570555314106",
        "semi_major_axis": "1.186521967749032",
        "inclination": "24.38302732679652",
        "ascending_node_longitude": "145.5412578565796",
        "orbital_period": "472.0761957576149",
        "perihelion_distance": "1.027460326429261",
        "perihelion_argument": "296.7176705112811",
        "aphelion_distance": "1.345583609068802",
        "perihelion_time": "2458829.971187919286",
        "mean_anomaly": "50.73412420344583",
        "mean_motion": ".7625887584148389",
        "equinox": "J2000",
        "orbit_class": {
            "orbit_class_type": "AMO",
            "orbit_class_description": "Near-Earth asteroid orbits similar to that of 1221 Amor",
            "orbit_class_range": "1.017 AU < q (perihelion) < 1.3 AU"
        }
    },
    "is_sentry_object": false
}